{
  "norad_id": 61718,
  "name": "STARLINK-32591",
  "history": [
    {
      "epoch": "2026-03-28T11:52:12.008352Z",
      "apogee_km": 476.016735207314,
      "perigee_km": 474.40181269132063,
      "latitude_deg": -1.3525711861683292e-05,
      "longitude_deg": -2.6442643178441307,
      "height_km": 475.8597026925143,
      "semi_major_axis_km": 6853.346273949317,
      "eccentricity": 0.00011782,
      "inclination_deg": 53.1624,
      "raan_deg": 1.32,
      "arg_perigee_deg": 72.1048,
      "mean_anomaly_deg": 288.0081,
      "mean_motion_rev_day": 15.30201941
    },
    {
      "epoch": "2026-03-29T03:32:44.600352Z",
      "apogee_km": 475.9488792922639,
      "perigee_km": 474.52337768153757,
      "latitude_deg": 1.3454382197734768e-05,
      "longitude_deg": 118.54527671499424,
      "height_km": 475.9506988577873,
      "semi_major_axis_km": 6853.3731284869,
      "eccentricity": 0.000104,
      "inclination_deg": 53.1626,
      "raan_deg": 358.2891,
      "arg_perigee_deg": 75.0276,
      "mean_anomaly_deg": 285.084,
      "mean_motion_rev_day": 15.30192947
    }
  ]
}